{
  "norad_id": 65458,
  "name": "STARLINK-34784",
  "history": [
    {
      "epoch": "2026-03-28T13:05:44.243808Z",
      "apogee_km": 476.20887679191856,
      "perigee_km": 474.169326944002,
      "latitude_deg": -4.27353850387303e-05,
      "longitude_deg": 147.98806503375437,
      "height_km": 475.8507627368582,
      "semi_major_axis_km": 6853.32610186796,
      "eccentricity": 0.0001488,
      "inclination_deg": 53.1592,
      "raan_deg": 170.387,
      "arg_perigee_deg": 76.6135,
      "mean_anomaly_deg": 283.5031,
      "mean_motion_rev_day": 15.30208697
    }
  ]
}